NORAD_CAT_ID,OBJECT_NAME,OBJECT_TYPE,EPOCH,MEAN_MOTION,ECCENTRICITY,INCLINATION,RA_OF_ASC_NODE,ARG_OF_PERICENTER,MEAN_ANOMALY,BSTAR,MEAN_MOTION_DOT,MEAN_MOTION_DDOT,TLE_LINE0,TLE_LINE1,TLE_LINE2,SEMIMAJOR_AXIS,PERIOD,APOGEE,PERIGEE,DECAYED
56770.0,STARLINK-6342,PAYLOAD,2023-06-21 23:15:22,15.6994191,0.0003992,70.0004,352.3267,271.2299,88.844,0.00045516,0.00054922,0.0,0 STARLINK-6342,1 56770U 23078D   23172.96901331  .00054922  00000-0  45516-3 0  9998,2 56770  70.0004 352.3267 0003992 271.2299  88.8440 15.69941910  3719,6737.2,91.723,361.755,356.376,0.0
56770.0,STARLINK-6342,PAYLOAD,2023-06-22 05:22:22,15.69950981,0.0004201,70.0002,351.61,270.3262,89.7453,0.00042165,0.0005086,0.0,0 STARLINK-6342,1 56770U 23078D   23173.22387725  .00050860  00000-0  42165-3 0  9997,2 56770  70.0002 351.6100 0004201 270.3262  89.7453 15.69950981  3755,6737.174,91.723,361.87,356.209,0.0
56770.0,STARLINK-6342,PAYLOAD,2023-06-22 14:32:53,15.69936726,0.0004048,70.0001,350.5353,268.3937,91.6795,0.00031471,0.00037824,0.0,0 STARLINK-6342,1 56770U 23078D   23173.60617739  .00037824  00000-0  31471-3 0  9993,2 56770  70.0001 350.5353 0004048 268.3937  91.6795 15.69936726  3816,6737.215,91.723,361.807,356.353,0.0
56770.0,STARLINK-6342,PAYLOAD,2023-06-23 05:50:24,15.69930848,0.0003584,70.0006,348.744,261.5229,98.5561,0.00035764,0.00043025,0.0,0 STARLINK-6342,1 56770U 23078D   23174.24334331  .00043025  00000-0  35764-3 0  9997,2 56770  70.0006 348.7440 0003584 261.5229  98.5561 15.69930848  3917,6737.232,91.724,361.511,356.682,0.0
56770.0,STARLINK-6342,PAYLOAD,2023-06-23 15:00:55,15.69931235,0.0003993,70.0002,347.6694,272.4904,87.5835,0.00014419,0.00017167,0.0,0 STARLINK-6342,1 56770U 23078D   23174.62564498  .00017167  00000-0  14419-3 0  9990,2 56770  70.0002 347.6694 0003993 272.4904  87.5835 15.69931235  3976,6737.231,91.724,361.786,356.406,0.0
56770.0,STARLINK-6342,PAYLOAD,2023-06-23 21:07:56,15.69929125,0.0004054,70.0001,346.9526,273.1595,86.9137,5.8283e-05,6.803e-05,0.0,0 STARLINK-6342,1 56770U 23078D   23174.88051161  .00006803  00000-0  58283-4 0  9999,2 56770  70.0001 346.9526 0004054 273.1595  86.9137 15.69929125  4013,6737.237,91.724,361.833,356.37,0.0
56770.0,STARLINK-6342,PAYLOAD,2023-06-24 04:46:42,15.69919014,0.0003888,69.9998,346.0572,272.57,87.5051,4.8108e-06,3.65e-06,0.0,0 STARLINK-6342,1 56770U 23078D   23175.19909854  .00000365  00000-0  48108-5 0  9998,2 56770  69.9998 346.0572 0003888 272.5700  87.5051 15.69919014  4065,6737.266,91.724,361.75,356.511,0.0
56770.0,STARLINK-6342,PAYLOAD,2023-06-24 13:57:12,15.69942433,0.0004029,69.9993,344.9826,273.5328,86.5407,9.4879e-05,0.00011221,0.0,0 STARLINK-6342,1 56770U 23078D   23175.58139338  .00011221  00000-0  94879-4 0  9991,2 56770  69.9993 344.9826 0004029 273.5328  86.5407 15.69942433  4126,6737.199,91.723,361.778,356.349,0.0
56770.0,STARLINK-6342,PAYLOAD,2023-06-24 20:04:13,15.69935233,0.000393,69.9998,344.2653,272.6639,87.4107,7.9659e-05,9.381e-05,0.0,0 STARLINK-6342,1 56770U 23078D   23175.83626284  .00009381  00000-0  79659-4 0  9993,2 56770  69.9998 344.2653 0003930 272.6639  87.4107 15.69935233  4168,6737.219,91.724,361.732,356.437,0.0
56770.0,STARLINK-6342,PAYLOAD,2023-06-25 17:28:44,15.69932418,0.0003968,69.9993,341.7566,270.4886,89.5855,4.721e-05,5.47e-05,0.0,0 STARLINK-6342,1 56770U 23078D   23176.72829633  .00005470  00000-0  47210-4 0  9998,2 56770  69.9993 341.7566 0003968 270.4886  89.5855 15.69932418  4300,6737.227,91.724,361.766,356.419,0.0
56770.0,STARLINK-6342,PAYLOAD,2023-06-26 10:18:01,15.69924722,0.0003935,69.9988,339.7858,274.1646,85.91,1.6395e-05,1.759e-05,0.0,0 STARLINK-6342,1 56770U 23078D   23177.42918323  .00001759  00000-0  16395-4 0  9997,2 56770  69.9988 339.7858 0003935 274.1646  85.9100 15.69924722  4418,6737.249,91.724,361.765,356.463,0.0
56770.0,STARLINK-6342,PAYLOAD,2023-06-26 13:21:32,15.69918168,0.000384,69.9989,339.4294,275.2856,84.7901,3.0896e-06,1.58e-06,0.0,0 STARLINK-6342,1 56770U 23078D   23177.55662060  .00000158  00000-0  30896-5 0  9990,2 56770  69.9989 339.4294 0003840 275.2856  84.7901 15.69918168  4435,6737.268,91.725,361.72,356.546,0.0
56770.0,STARLINK-6342,PAYLOAD,2023-06-26 21:00:17,15.69931751,0.0003633,69.9998,338.5344,273.2053,86.8727,6.3009e-05,7.373e-05,0.0,0 STARLINK-6342,1 56770U 23078D   23177.87520106  .00007373  00000-0  63009-4 0  9996,2 56770  69.9998 338.5344 0003633 273.2053  86.8727 15.69931751  4485,6737.229,91.724,361.542,356.647,0.0
56770.0,STARLINK-6342,PAYLOAD,2023-06-27 18:24:48,15.69933215,0.0003797,69.9989,336.0241,273.5685,86.5077,4.0817e-05,4.7e-05,0.0,0 STARLINK-6342,1 56770U 23078D   23178.76723353  .00004700  00000-0  40817-4 0  9997,2 56770  69.9989 336.0241 0003797 273.5685  86.5077 15.69933215  4627,6737.225,91.724,361.648,356.532,0.0
56770.0,STARLINK-6342,PAYLOAD,2023-06-28 09:42:20,15.69919602,0.0003691,69.9978,334.2324,272.0159,88.0614,6.9248e-07,-1.3e-06,0.0,0 STARLINK-6342,1 56770U 23078D   23179.40440585 -.00000130  00000-0  69248-6 0  9997,2 56770  69.9978 334.2324 0003691 272.0159  88.0614 15.69919602  4729,6737.264,91.724,361.616,356.642,0.0
56770.0,STARLINK-6342,PAYLOAD,2023-06-28 12:45:56,15.69790125,0.0003315,69.9982,333.8753,263.1155,96.9663,-0.00023913,-0.00028709,0.0,0 STARLINK-6342,1 56770U 23078D   23179.53190516 -.00028709  00000-0 -23913-3 0  9996,2 56770  69.9982 333.8753 0003315 263.1155  96.9663 15.69790125  4746,6737.634,91.732,361.733,357.266,0.0
56770.0,STARLINK-6342,PAYLOAD,2023-06-28 20:24:46,15.69691206,0.0004997,69.9983,332.979,275.1603,84.9022,-0.00042579,-0.00050637,0.0,0 STARLINK-6342,1 56770U 23078D   23179.85054022 -.00050637  00000-0 -42579-3 0  9996,2 56770  69.9983 332.9790 0004997 275.1603  84.9022 15.69691206  4797,6737.918,91.738,363.149,356.416,0.0
56770.0,STARLINK-6342,PAYLOAD,2023-06-30 20:00:01,15.65119597,0.0003685,69.9981,327.4265,275.9771,106.495,-0.0097571,-0.00882867,0.0,0 STARLINK-6342,1 56770U 23078D   23181.83334491 -.00882867  00000-0 -97571-2 0  9997,2 56770  69.9981 327.4265 0003685 275.9771 106.4950 15.65119597  5108,6751.032,92.006,375.385,370.409,0.0
56770.0,STARLINK-6342,PAYLOAD,2023-07-01 12:00:00,15.63853049,0.0003382,69.9987,325.5669,270.5959,265.4729,-0.011234,-0.00958779,0.0,0 STARLINK-6342,1 56770U 23078D   23182.50001157 -.00958779  00000-0 -11234-1 0  9999,2 56770  69.9987 325.5669 0003382 270.5959 265.4729 15.63853049  5200,6754.676,92.08,378.826,374.257,0.0
56770.0,STARLINK-6342,PAYLOAD,2023-07-01 20:00:01,15.63165676,0.0003367,69.9987,324.6383,274.8325,336.8703,-0.010649,-0.00890841,0.0,0 STARLINK-6342,1 56770U 23078D   23182.83334491 -.00890841  00000-0 -10649-1 0  9999,2 56770  69.9987 324.6383 0003367 274.8325 336.8703 15.63165676  5263,6756.656,92.121,380.796,376.246,0.0
56770.0,STARLINK-6342,PAYLOAD,2023-07-02 04:00:00,15.62480855,0.0003385,69.9985,323.7108,269.9144,56.6467,-0.010332,-0.00845419,0.0,0 STARLINK-6342,1 56770U 23078D   23183.16667824 -.00845419  00000-0 -10332-1 0  9995,2 56770  69.9985 323.7108 0003385 269.9144  56.6467 15.62480855  5318,6758.631,92.161,382.783,378.208,0.0
56770.0,STARLINK-6342,PAYLOAD,2023-07-04 04:00:00,15.58568049,0.0003471,69.9989,318.1649,268.8068,130.3976,-0.011977,-0.0084321,0.0,0 STARLINK-6342,1 56770U 23078D   23185.16667824 -.00843210  00000-0 -11977-1 0  9990,2 56770  69.9989 318.1649 0003471 268.8068 130.3976 15.58568049  5625,6769.938,92.393,394.152,389.453,0.0
56770.0,STARLINK-6342,PAYLOAD,2023-07-04 12:00:00,15.57971915,0.0003407,69.9991,317.2438,270.3435,198.2172,-0.013871,-0.00944523,0.0,0 STARLINK-6342,1 56770U 23078D   23185.50001157 -.00944523  00000-0 -13871-1 0  9993,2 56770  69.9991 317.2438 0003407 270.3435 198.2172 15.57971915  5674,6771.664,92.428,395.836,391.222,0.0
56770.0,STARLINK-6342,PAYLOAD,2023-07-05 04:00:00,15.56611858,0.00034,69.9991,315.4045,268.2194,336.7464,-0.012892,-0.00843234,0.0,0 STARLINK-6342,1 56770U 23078D   23186.16667824 -.00843234  00000-0 -12892-1 0  9994,2 56770  69.9991 315.4045 0003400 268.2194 336.7464 15.56611858  5780,6775.608,92.509,399.777,395.169,0.0
56770.0,STARLINK-6342,PAYLOAD,2023-07-05 12:00:00,15.5601529,0.0003619,69.9993,314.4863,269.046,42.9296,-0.014915,-0.00943965,0.0,0 STARLINK-6342,1 56770U 23078D   23186.50001157 -.00943965  00000-0 -14915-1 0  9993,2 56770  69.9993 314.4863 0003619 269.0460  42.9296 15.56015290  5839,6777.34,92.544,401.658,396.752,0.0
56770.0,STARLINK-6342,PAYLOAD,2023-07-06 04:00:00,15.54654691,0.0003566,69.9987,312.6522,268.3685,175.3161,-0.013796,-0.00839642,0.0,0 STARLINK-6342,1 56770U 23078D   23187.16667824 -.00839642  00000-0 -13796-1 0  9997,2 56770  69.9987 312.6522 0003566 268.3685 175.3161 15.54654691  5931,6781.294,92.625,405.577,400.74,0.0
56770.0,STARLINK-6342,PAYLOAD,2023-07-06 12:00:00,15.54053238,0.0003579,69.999,311.7364,270.5338,237.8177,-0.015924,-0.00938023,0.0,0 STARLINK-6342,1 56770U 23078D   23187.50001157 -.00938023  00000-0 -15924-1 0  9994,2 56770  69.9990 311.7364 0003579 270.5338 237.8177 15.54053238  5989,6783.043,92.661,407.336,402.48,0.0
56770.0,STARLINK-6342,PAYLOAD,2023-07-07 04:00:00,15.52698033,0.0003551,69.9985,309.9077,268.43,6.9357,-0.014849,-0.00841304,0.0,0 STARLINK-6342,1 56770U 23078D   23188.16667824 -.00841304  00000-0 -14849-1 0  9996,2 56770  69.9985 309.9077 0003551 268.4300   6.9357 15.52698033  6092,6786.989,92.742,411.264,406.444,0.0
56770.0,STARLINK-6342,PAYLOAD,2023-07-07 12:00:00,15.52078595,0.0003604,69.9985,308.9947,270.9056,66.7827,-0.016401,-0.00902674,0.0,0 STARLINK-6342,1 56770U 23078D   23188.50001157 -.00902674  00000-0 -16401-1 0  9999,2 56770  69.9985 308.9947 0003604 270.9056  66.7827 15.52078595  6149,6788.795,92.779,413.107,408.213,0.0
56770.0,STARLINK-6342,PAYLOAD,2023-07-07 20:00:01,15.51289904,0.0003501,69.9979,308.0826,276.3164,122.9249,-0.0017412,-0.00101385,0.0,0 STARLINK-6342,1 56770U 23078D   23188.83334491 -.00101385  00000-0 -17412-2 0  9999,2 56770  69.9979 308.0826 0003501 276.3164 122.9249 15.51289904  6190,6791.096,92.826,415.338,410.583,0.0
